[{"OBJECT_NAME":"ONEWEB-0594","OBJECT_ID":"2022-166U","EPOCH":"2026-03-09T23:10:31.522368","MEAN_MOTION":13.21823766,"ECCENTRICITY":0.00017237,"INCLINATION":87.9163,"RA_OF_ASC_NODE":263.7797,"ARG_OF_PERICENTER":94.7567,"MEAN_ANOMALY":265.3764,"EPHEMERIS_TYPE":0,"CLASSIFICATION_TYPE":"U","NORAD_CAT_ID":54660,"ELEMENT_SET_NO":999,"REV_AT_EPOCH":15845,"BSTAR":3.993666e-6,"MEAN_MOTION_DOT":1.5e-7,"MEAN_MOTION_DDOT":0},{"OBJECT_NAME":"COSMOS 886 DEB","OBJECT_ID":"1976-126J","EPOCH":"2026-03-09T21:15:56.309760","MEAN_MOTION":12.96519014,"ECCENTRICITY":0.08881878,"INCLINATION":65.8322,"RA_OF_ASC_NODE":329.6051,"ARG_OF_PERICENTER":17.8083,"MEAN_ANOMALY":345.206,"EPHEMERIS_TYPE":0,"CLASSIFICATION_TYPE":"U","NORAD_CAT_ID":9652,"ELEMENT_SET_NO":999,"REV_AT_EPOCH":29599,"BSTAR":0.0012943963,"MEAN_MOTION_DOT":2.381e-5,"MEAN_MOTION_DDOT":0}]
